QIANFAN-105             
1 66047U 25233Q   25354.30318722  .00000059  00000+0  34904-4 0  9990
2 66047  88.9978  61.3061 0016105  25.4207 334.7757 13.93750801  9040
QIANFAN-106             
1 66048U 25233R   25354.55259912  .00000054  00000+0  44088-4 0  9992
2 66048  88.9947  61.3214 0015956  21.8678 338.3164 13.74019035  9051
QIANFAN-107             
1 66049U 25233S   25354.40893117  .00000049  00000+0  40359-4 0  9999
2 66049  88.9956  61.3389 0015495  25.9727 334.2210 13.71053868  9037
QIANFAN-108             
1 66050U 25233T   25354.55053907  .00000055  00000+0  46263-4 0  9999
2 66050  88.9954  61.3353 0014387  32.6153 327.5896 13.72524579  9055
